FLOCK 4H-4              
1 66707U 25276AT  26068.76745488  .00008077  00000+0  39509-3 0  9999
2 66707  97.4291 144.0059 0004417   7.9405 352.1898 15.18459011 15326
ICEYE-X60               
1 66753U 25276CR  26068.76608885  .00004457  00000+0  22155-3 0  9996
2 66753  97.4272 143.9786 0003074  37.9944 322.1506 15.18150432 15328
